{
  "type": "FeatureCollection",
  "features": [
    {
      "type": "Feature",
      "properties": {
        "norad_id": 38867,
        "name": "INTELSAT 23 (IS-23)",
        "group": "intelsat",
        "lat": 0.0060661640104261606,
        "lon": -126.85649656158314,
        "alt_km": 35781.57150993489,
        "timestamp": "2025-12-13T13:34:34.742328+00:00",
        "meta_object_name": "INTELSAT 23 (IS-23)",
        "meta_object_id": "2012-057A",
        "meta_epoch": "2025-12-12T20:04:33.254400",
        "meta_mean_motion": 1.00272659,
        "meta_eccentricity": 0.0001042,
        "meta_inclination": 0.0448,
        "meta_ra_of_asc_node": 97.1317,
        "meta_arg_of_pericenter": 126.8115,
        "meta_mean_anomaly": 105.9792,
        "meta_ephemeris_type": 0,
        "meta_classification_type": "U",
        "meta_norad_cat_id": 38867,
        "meta_element_set_no": 999,
        "meta_rev_at_epoch": 4808,
        "meta_bstar": 0,
        "meta_mean_motion_dot": -2.72e-06,
        "meta_mean_motion_ddot": 0,
        "tle_line1": "1 38867U 12057A   25346.83649600 -.00000272  00000+0  00000+0 0  9993",
        "tle_line2": "2 38867   0.0448  97.1317 0001042 126.8115 105.9792  1.00272659 48084"
      },
      "geometry": {
        "type": "Point",
        "coordinates": [
          -126.85649656158314,
          0.0060661640104261606
        ]
      }
    },
    {
      "type": "Feature",
      "properties": {
        "norad_id": 39360,
        "name": "FM-6",
        "group": "intelsat",
        "lat": 0.0011492763676494492,
        "lon": 169.98897554833044,
        "alt_km": 35773.756645875204,
        "timestamp": "2025-12-13T13:34:34.742339+00:00",
        "meta_object_name": "FM-6",
        "meta_object_id": "2013-058A",
        "meta_epoch": "2025-12-12T21:29:22.738848",
        "meta_mean_motion": 1.00273072,
        "meta_eccentricity": 0.00028733,
        "meta_inclination": 0.0115,
        "meta_ra_of_asc_node": 76.5029,
        "meta_arg_of_pericenter": 101.6907,
        "meta_mean_anomaly": 109.8439,
        "meta_ephemeris_type": 0,
        "meta_classification_type": "U",
        "meta_norad_cat_id": 39360,
        "meta_element_set_no": 999,
        "meta_rev_at_epoch": 4420,
        "meta_bstar": 0,
        "meta_mean_motion_dot": -5e-08,
        "meta_mean_motion_ddot": 0,
        "tle_line1": "1 39360U 13058A   25346.89540207 -.00000005  00000+0  00000+0 0  9997",
        "tle_line2": "2 39360   0.0115  76.5029 0002873 101.6907 109.8439  1.00273072 44209"
      },
      "geometry": {
        "type": "Point",
        "coordinates": [
          169.98897554833044,
          0.0011492763676494492
        ]
      }
    },
    {
      "type": "Feature",
      "properties": {
        "norad_id": 40271,
        "name": "INTELSAT 30 (IS-30)",
        "group": "intelsat",
        "lat": -0.0014207487224385303,
        "lon": -168.91161660609612,
        "alt_km": 35787.9770667771,
        "timestamp": "2025-12-13T13:34:34.742349+00:00",
        "meta_object_name": "INTELSAT 30 (IS-30)",
        "meta_object_id": "2014-062A",
        "meta_epoch": "2025-12-12T08:55:38.613216",
        "meta_mean_motion": 1.00272537,
        "meta_eccentricity": 0.00012624,
        "meta_inclination": 0.0176,
        "meta_ra_of_asc_node": 31.1392,
        "meta_arg_of_pericenter": 47.2418,
        "meta_mean_anomaly": 41.7881,
        "meta_ephemeris_type": 0,
        "meta_classification_type": "U",
        "meta_norad_cat_id": 40271,
        "meta_element_set_no": 999,
        "meta_rev_at_epoch": 491,
        "meta_bstar": 0,
        "meta_mean_motion_dot": -1.41e-06,
        "meta_mean_motion_ddot": 0,
        "tle_line1": "1 40271U 14062A   25346.37197469 -.00000141  00000+0  00000+0 0  9998",
        "tle_line2": "2 40271   0.0176  31.1392 0001262  47.2418  41.7881  1.00272537  4916"
      },
      "geometry": {
        "type": "Point",
        "coordinates": [
          -168.91161660609612,
          -0.0014207487224385303
        ]
      }
    },
    {
      "type": "Feature",
      "properties": {
        "norad_id": 40333,
        "name": "DIRECTV 14",
        "group": "intelsat",
        "lat": -0.023170658806879126,
        "lon": -173.08933287227535,
        "alt_km": 35785.308084738055,
        "timestamp": "2025-12-13T13:34:34.742360+00:00",
        "meta_object_name": "DIRECTV 14",
        "meta_object_id": "2014-078B",
        "meta_epoch": "2025-12-12T23:16:53.204736",
        "meta_mean_motion": 1.00270111,
        "meta_eccentricity": 3.237e-05,
        "meta_inclination": 0.0184,
        "meta_ra_of_asc_node": 326.2968,
        "meta_arg_of_pericenter": 199.0672,
        "meta_mean_anomaly": 166.5466,
        "meta_ephemeris_type": 0,
        "meta_classification_type": "U",
        "meta_norad_cat_id": 40333,
        "meta_element_set_no": 999,
        "meta_rev_at_epoch": 4017,
        "meta_bstar": 0,
        "meta_mean_motion_dot": -1.13e-06,
        "meta_mean_motion_ddot": 0,
        "tle_line1": "1 40333U 14078B   25346.97006024 -.00000113  00000+0  00000+0 0  9995",
        "tle_line2": "2 40333   0.0184 326.2968 0000323 199.0672 166.5466  1.00270111 40175"
      },
      "geometry": {
        "type": "Point",
        "coordinates": [
          -173.08933287227535,
          -0.023170658806879126
        ]
      }
    },
    {
      "type": "Feature",
      "properties": {
        "norad_id": 40663,
        "name": "DIRECTV 15",
        "group": "intelsat",
        "lat": 0.02378143450209845,
        "lon": -176.7289476870014,
        "alt_km": 35785.71534963193,
        "timestamp": "2025-12-13T13:34:34.742370+00:00",
        "meta_object_name": "DIRECTV 15",
        "meta_object_id": "2015-026A",
        "meta_epoch": "2025-12-12T23:15:53.301024",
        "meta_mean_motion": 1.00272237,
        "meta_eccentricity": 1.171e-05,
        "meta_inclination": 0.039,
        "meta_ra_of_asc_node": 84.5267,
        "meta_arg_of_pericenter": 159.0415,
        "meta_mean_anomaly": 84.4503,
        "meta_ephemeris_type": 0,
        "meta_classification_type": "U",
        "meta_norad_cat_id": 40663,
        "meta_element_set_no": 999,
        "meta_rev_at_epoch": 3859,
        "meta_bstar": 0,
        "meta_mean_motion_dot": -9e-07,
        "meta_mean_motion_ddot": 0,
        "tle_line1": "1 40663U 15026A   25346.96936691 -.00000090  00000+0  00000+0 0  9990",
        "tle_line2": "2 40663   0.0390  84.5267 0000117 159.0415  84.4503  1.00272237 38592"
      },
      "geometry": {
        "type": "Point",
        "coordinates": [
          -176.7289476870014,
          0.02378143450209845
        ]
      }
    },
    {
      "type": "Feature",
      "properties": {
        "norad_id": 40664,
        "name": "SKY MEXICO-1",
        "group": "intelsat",
        "lat": 0.009818077947049116,
        "lon": -152.65762694596876,
        "alt_km": 35782.33439636813,
        "timestamp": "2025-12-13T13:34:34.742380+00:00",
        "meta_object_name": "SKY MEXICO-1",
        "meta_object_id": "2015-026B",
        "meta_epoch": "2025-12-12T23:22:45.143040",
        "meta_mean_motion": 1.00272325,
        "meta_eccentricity": 0.00025316,
        "meta_inclination": 0.0372,
        "meta_ra_of_asc_node": 79.4517,
        "meta_arg_of_pericenter": 198.1354,
        "meta_mean_anomaly": 76.2496,
        "meta_ephemeris_type": 0,
        "meta_classification_type": "U",
        "meta_norad_cat_id": 40664,
        "meta_element_set_no": 999,
        "meta_rev_at_epoch": 3858,
        "meta_bstar": 0,
        "meta_mean_motion_dot": -2.22e-06,
        "meta_mean_motion_ddot": 0,
        "tle_line1": "1 40664U 15026B   25346.97413360 -.00000222  00000+0  00000+0 0  9992",
        "tle_line2": "2 40664   0.0372  79.4517 0002531 198.1354  76.2496  1.00272325 38589"
      },
      "geometry": {
        "type": "Point",
        "coordinates": [
          -152.65762694596876,
          0.009818077947049116
        ]
      }
    },
    {
      "type": "Feature",
      "properties": {
        "norad_id": 40874,
        "name": "INTELSAT 34 (IS-34)",
        "group": "intelsat",
        "lat": -0.031560806435016166,
        "lon": -129.36416083379024,
        "alt_km": 35784.98422542952,
        "timestamp": "2025-12-13T13:34:34.742390+00:00",
        "meta_object_name": "INTELSAT 34 (IS-34)",
        "meta_object_id": "2015-039A",
        "meta_epoch": "2025-12-12T13:12:57.677184",
        "meta_mean_motion": 1.00271609,
        "meta_eccentricity": 6.184e-05,
        "meta_inclination": 0.0135,
        "meta_ra_of_asc_node": 325.751,
        "meta_arg_of_pericenter": 204.0245,
        "meta_mean_anomaly": 54.4583,
        "meta_ephemeris_type": 0,
        "meta_classification_type": "U",
        "meta_norad_cat_id": 40874,
        "meta_element_set_no": 999,
        "meta_rev_at_epoch": 3775,
        "meta_bstar": 0,
        "meta_mean_motion_dot": -2.74e-06,
        "meta_mean_motion_ddot": 0,
        "tle_line1": "1 40874U 15039A   25346.55066756 -.00000274  00000+0  00000+0 0  9993",
        "tle_line2": "2 40874   0.0135 325.7510 0000618 204.0245  54.4583  1.00271609 37756"
      },
      "geometry": {
        "type": "Point",
        "coordinates": [
          -129.36416083379024,
          -0.031560806435016166
        ]
      }
    }
  ]
}